0 XW-2B
1 40911U 15049N   23051.56099291  .00020083  00000-0  82887-3 0  9995
2 40911  97.4937  59.3461 0009925 199.2463 285.6132 15.24026478410576
0 ISS (ZARYA)
1 25544U 98067A   23051.55722113  .00107056  00000-0  19138-2 0  9990
2 25544  51.6381 186.2131 0005172  11.8510  87.3829 15.49155322383704
0 XW-2F
1 40910U 15049M   23051.52113250  .00033878  00000-0  11581-2 0  9990
2 40910  97.4693  63.3430 0011638 170.1849 312.9126 15.30138132411009
0 XW-2D
1 40907U 15049J   23051.51981361  .00020568  00000-0  84443-3 0  9991
2 40907  97.4949  58.8025 0010516 198.2206 316.0179 15.24193346410687
0 XW-2C
1 40906U 15049H   23051.50734744  .00017441  00000-0  74412-3 0  9991
2 40906  97.4968  58.5175 0010978 206.1939 305.0240 15.22925225410611
0 XW-2A
1 40903U 15049E   23051.50232287  .00119079  00000-0  76856-3 0  9997
2 40903  97.1393 117.5204 0005194 260.6129 223.6907 15.75756266417950
0 ZHUHAI-1 02
1 42759U 17034B   23051.48440579  .00013555  00000-0  72742-3 0  9998
2 42759  43.0169  43.2783 0009709  57.6343  85.7282 15.14788784313925
0 ZHUHAI-1 01
1 42761U 17034D   23051.43644962  .00013260  00000-0  70965-3 0  9996
2 42761  43.0168  42.1332 0009793  61.1872  69.9761 15.14901489313920
0 FUNCUBE 1
1 39444U 13066AE  23051.43637356  .00006234  00000-0  71538-3 0  9990
2 39444  97.6574  19.8523 0052792 298.7937  60.7982 14.85199722498890
0 AO-91
1 43017U 17073E   23051.42868652  .00006882  00000-0  49416-3 0  9996
2 43017  97.6484 300.4196 0241784  94.1863 268.7022 14.83969868283850
0 XW-4 (CAS-10)
1 54816U 21035C   23051.39654351  .00338313  00000-0  14653-2 0  9994
2 54816  41.4772 143.0237 0016531  24.8474 335.3166 15.82956697  9987
0 XW-3 (CAS 9)
1 50466U 21131B   23051.34033726  .00000714  00000-0  24719-3 0  9996
2 50466  98.5592 133.2431 0005591 126.7674 233.4027 14.38690585 60557
0 OBJECT C
1 54684U 22167C   23051.31984367  .00018771  00000-0  11388-2 0  9994
2 54684  97.5425 190.1133 0014520  18.1643  70.2197 15.10491525 11016
0 DIWATA 2B
1 43678U 18084H   23051.31946637  .00003025  00000-0  29761-3 0  9997
2 43678  98.0005 193.1141 0009303 181.7626 178.3469 14.92849731234823
0 TEVEL 6
1 50999U 22002R   23051.27928626  .00027190  00000-0  12468-2 0  9993
2 50999  97.4478 119.6516 0009228 276.8116 155.9289 15.20378817 60999
0 TEVEL 4
1 51063U 22002CH  23051.23296593  .00018850  00000-0  88559-3 0  9991
2 51063  97.4511 119.3624 0007702 281.7786 150.4863 15.19630892 60967
0 TEVEL 3
1 50988U 22002E   23051.21470220  .00019511  00000-0  91418-3 0  9998
2 50988  97.4486 119.3269 0007959 282.9063 152.4642 15.19713658 60962
0 CSS (TIANHE-1)
1 48274U 21035A   23051.19621188  .00019036  00000-0  22138-3 0  9991
2 48274  41.4743 149.3665 0005081 292.7784 149.9426 15.61252617103530
0 OSCAR 7
1  7530U 74089B   23051.18895065 -.00000036  00000-0  65045-4 0  9990
2  7530 101.9377  37.1207 0011978 288.1458  83.8329 12.53661420208752
0 TEVEL 7
1 51062U 22002CG  23051.16059536  .00018455  00000-0  86647-3 0  9993
2 51062  97.4513 119.2999 0007597 280.6945 131.6980 15.19657298 60958
0 TEVEL 8
1 50989U 22002F   23051.15870668  .00018323  00000-0  86049-3 0  9996
2 50989  97.4521 119.3187 0007826 282.8954 129.7210 15.19650079 60957
0 TEVEL 1
1 51013U 22002AF  23051.15450103  .00017208  00000-0  80786-3 0  9996
2 51013  97.4497 119.2275 0007650 280.3874 148.8464 15.19675011 60950
0 TEVEL 2
1 51069U 22002CP  23051.14727402  .00019174  00000-0  89865-3 0  9996
2 51069  97.4488 119.2384 0007682 281.0247 135.3863 15.19709445 60952
0 TEVEL 5
1 50998U 22002Q   23051.14575227  .00027311  00000-0  12527-2 0  9994
2 50998  97.4485 119.5234 0009322 276.6645 138.8785 15.20366733 60975
0 LILACSAT 2
1 40908U 15049K   23051.10462859  .00009852  00000-0  48787-3 0  9997
2 40908  97.5247  54.6349 0012855 233.8551 196.8263 15.17913006410021
0 XW-2E
1 40909U 15049L   23051.10298785  .00035315  00000-0  11872-2 0  9990
2 40909  97.4614  63.7175 0009377 168.4322 262.7858 15.30693662411180
0 LAPAN A2
1 40931U 15052B   23051.08245240  .00001723  00000-0  14936-3 0  9995
2 40931   5.9988 202.3983 0012939  72.2734 287.9126 14.77044235400011
0 SAUDISAT 1C
1 27607U 02058C   23050.83403366  .00001620  00000-0  23942-3 0  9992
2 27607  64.5540 264.5928 0077885 247.5224 111.7619 14.76771535 85101
0 EYESAT A
1 22825U 93061C   23050.82207458  .00000215  00000-0  10058-3 0  9999
2 22825  98.8588  91.7262 0009271  55.3381 304.8673 14.30249021533781
0 BREEZE-KM R/B
1 44909U 19096E   23050.79412952  .00000036  00000-0  91175-4 0  9996
2 44909  82.5174  65.9469 0218593 101.3923 261.1819 12.79718478147195
0 ES'HAIL 2
1 43700U 18090A   23050.79023740  .00000131  00000-0  00000+0 0  9998
2 43700   0.0161 110.1184 0002514 259.3076  90.2869  1.00272628 15754
0 AO-95
1 43770U 18099N   23050.75177329  .00004781  00000-0  40638-3 0  9993
2 43770  97.5895 115.4835 0013619 161.5374 198.6345 14.98246438230011
0 UVSQ-SAT
1 47438U 21006AB  23050.70912134  .00014395  00000-0  66745-3 0  9995
2 47438  97.4034 109.7437 0011665 131.7602 228.4632 15.20109204114776
0 NEXUS
1 43937U 19003F   23050.60970664  .00033628  00000-0  82744-3 0  9997
2 43937  97.1043  80.2141 0015575 353.0692   7.0337 15.40416019227876
0 JAS 2
1 24278U 96046B   23050.54914081  .00000043  00000-0  79727-4 0  9993
2 24278  98.5191  45.1880 0350330   2.2764 357.9875 13.53133476309023
0 AO-92
1 43137U 18004AC  23050.46895090  .00029268  00000-0  80325-3 0  9990
2 43137  97.3419 129.0810 0006606 198.8910 161.2091 15.37193643284172
0 JY1SAT
1 43803U 18099AX  23050.44606907  .00006179  00000-0  51265-3 0  9996
2 43803  97.5871 116.0902 0015214 155.1264 205.0696 14.99056936230042
0 NAYIF 1
1 42017U 17008BX  23050.44491041  .00065564  00000-0  11900-2 0  9996
2 42017  97.2342 119.3558 0003264  82.8170 277.3452 15.49356851335082
0 MT-CUBE-2
1 53106U 22080B   23034.19933790 -.00000003  00000-0  00000-0 0  9994
2 53106  70.1777   6.2677 0008922 216.5435 143.4616  6.42557193 13147
